[{"OBJECT_NAME":"STARLINK-6340","OBJECT_ID":"2023-099AK","EPOCH":"2026-03-09T11:44:15.673920","MEAN_MOTION":15.02554822,"ECCENTRICITY":0.00018231,"INCLINATION":43.0067,"RA_OF_ASC_NODE":237.2728,"ARG_OF_PERICENTER":240.6498,"MEAN_ANOMALY":119.4162,"EPHEMERIS_TYPE":0,"CLASSIFICATION_TYPE":"U","NORAD_CAT_ID":57361,"ELEMENT_SET_NO":999,"REV_AT_EPOCH":14623,"BSTAR":-0.00035796033,"MEAN_MOTION_DOT":-5.038e-5,"MEAN_MOTION_DDOT":0},{"OBJECT_NAME":"FENGYUN 1C DEB","OBJECT_ID":"1999-025DEQ","EPOCH":"2026-03-08T16:18:11.400768","MEAN_MOTION":15.03063896,"ECCENTRICITY":0.0041192,"INCLINATION":98.802,"RA_OF_ASC_NODE":149.1421,"ARG_OF_PERICENTER":81.4798,"MEAN_ANOMALY":279.1089,"EPHEMERIS_TYPE":0,"CLASSIFICATION_TYPE":"U","NORAD_CAT_ID":33655,"ELEMENT_SET_NO":999,"REV_AT_EPOCH":97846,"BSTAR":0.0032042236,"MEAN_MOTION_DOT":0.0004416,"MEAN_MOTION_DDOT":0}]
